STARLINK-34128          
1 63892U 25095C   25307.98668697  .00025992  00000+0  95004-3 0  9992
2 63892  43.0029 166.0851 0002433 265.3302  94.7272 15.27603083 28565
STARLINK-33972          
1 63893U 25095D   25307.99440353  .00024833  00000+0  90835-3 0  9991
2 63893  43.0020 166.1448 0002060 286.2476  73.8149 15.27598991 28562
STARLINK-33973          
1 63894U 25095E   25307.95841868  .00024248  00000+0  88738-3 0  9993
2 63894  42.9991 165.8622 0001670 265.6367  94.4294 15.27594657 28569
STARLINK-34119          
1 63895U 25095F   25308.33545794  .00032643  00000+0  11890-2 0  9998
2 63895  43.0083 164.4049 0003489 270.1378  89.9074 15.27618910 28615
STARLINK-34143          
1 63896U 25095G   25307.98283249  .00014611  00000+0  53933-3 0  9993
2 63896  43.0007 166.0519 0001320 272.6301  87.4399 15.27584964 28565
STARLINK-33957          
1 63897U 25095H   25307.88161543  .00024084  00000+0  88146-3 0  9994
2 63897  43.0046 167.0203 0001986 291.7912  68.2728 15.27594148 28533
STARLINK-34120          
1 63898U 25095J   25307.62763298  .00025176  00000+0  92081-3 0  9998
2 63898  43.0002 167.6799 0001796 269.2913  90.7732 15.27595542 28514
STARLINK-34134          
1 63899U 25095K   25308.32520759  .00028637  00000+0  10467-2 0  9992
2 63899  43.0018 164.3270 0001733 261.9363  98.1292 15.27560181 28614
STARLINK-34118          
1 63900U 25095L   25308.33161749  .00028952  00000+0  10574-2 0  9995
2 63900  43.0031 164.3759 0002726 275.9742  84.0799 15.27581585 28610
STARLINK-34125          
1 63901U 25095M   25308.31747858  .00021590  00000+0  79150-3 0  9992
2 63901  42.9952 164.2669 0000320 331.9068  28.1767 15.27592245 28600
STARLINK-33955          
1 63902U 25095N   25307.96098941  .00037955  00000+0  13808-2 0  9994
2 63902  42.9996 165.8809 0001575 264.3223  95.7449 15.27601985 28550
STARLINK-34097          
1 63903U 25095P   25308.30719625  .00028329  00000+0  10346-2 0  9992
2 63903  43.0002 164.1838 0001049 270.3542  89.7189 15.27594776 28601
STARLINK-34092          
1 63904U 25095Q   25307.87904449  .00035468  00000+0  12908-2 0  9992
2 63904  42.9993 166.9959 0000238 218.3296 141.7539 15.27615003 28537
STARLINK-34114          
1 63905U 25095R   25307.88676341  .00033586  00000+0  12227-2 0  9994
2 63905  42.9984 167.0507 0001304 281.3970  78.6735 15.27626120 28531
STARLINK-33770          
1 63906U 25095S   25307.96998408  .00028446  00000+0  10389-2 0  9991
2 63906  42.9968 165.9525 0001693 258.3722 101.6940 15.27589611 28551
STARLINK-34106          
1 63907U 25095T   25307.96612932  .00024536  00000+0  89793-3 0  9999
2 63907  42.9984 165.9202 0000945 285.1418  74.9329 15.27589440 28554
