[{"OBJECT_NAME":"STARLINK-34128","OBJECT_ID":"2025-095C","EPOCH":"2025-11-03T23:40:49.754208","MEAN_MOTION":15.27603083,"ECCENTRICITY":0.00024335,"INCLINATION":43.0029,"RA_OF_ASC_NODE":166.0851,"ARG_OF_PERICENTER":265.3302,"MEAN_ANOMALY":94.7272,"EPHEMERIS_TYPE":0,"CLASSIFICATION_TYPE":"U","NORAD_CAT_ID":63892,"ELEMENT_SET_NO":999,"REV_AT_EPOCH":2856,"BSTAR":0.0009500432,"MEAN_MOTION_DOT":0.00025992,"MEAN_MOTION_DDOT":0},{"OBJECT_NAME":"STARLINK-33972","OBJECT_ID":"2025-095D","EPOCH":"2025-11-03T23:51:56.464992","MEAN_MOTION":15.27598991,"ECCENTRICITY":0.00020603,"INCLINATION":43.002,"RA_OF_ASC_NODE":166.1448,"ARG_OF_PERICENTER":286.2476,"MEAN_ANOMALY":73.8149,"EPHEMERIS_TYPE":0,"CLASSIFICATION_TYPE":"U","NORAD_CAT_ID":63893,"ELEMENT_SET_NO":999,"REV_AT_EPOCH":2856,"BSTAR":0.00090834965,"MEAN_MOTION_DOT":0.00024833,"MEAN_MOTION_DDOT":0},{"OBJECT_NAME":"STARLINK-33973","OBJECT_ID":"2025-095E","EPOCH":"2025-11-03T23:00:07.373952","MEAN_MOTION":15.27594657,"ECCENTRICITY":0.000167,"INCLINATION":42.9991,"RA_OF_ASC_NODE":165.8622,"ARG_OF_PERICENTER":265.6367,"MEAN_ANOMALY":94.4294,"EPHEMERIS_TYPE":0,"CLASSIFICATION_TYPE":"U","NORAD_CAT_ID":63894,"ELEMENT_SET_NO":999,"REV_AT_EPOCH":2856,"BSTAR":0.00088738,"MEAN_MOTION_DOT":0.00024248,"MEAN_MOTION_DDOT":0},{"OBJECT_NAME":"STARLINK-34119","OBJECT_ID":"2025-095F","EPOCH":"2025-11-04T08:03:03.566016","MEAN_MOTION":15.2761891,"ECCENTRICITY":0.0003489,"INCLINATION":43.0083,"RA_OF_ASC_NODE":164.4049,"ARG_OF_PERICENTER":270.1378,"MEAN_ANOMALY":89.9074,"EPHEMERIS_TYPE":0,"CLASSIFICATION_TYPE":"U","NORAD_CAT_ID":63895,"ELEMENT_SET_NO":999,"REV_AT_EPOCH":2861,"BSTAR":0.001189,"MEAN_MOTION_DOT":0.00032643,"MEAN_MOTION_DDOT":0},{"OBJECT_NAME":"STARLINK-34143","OBJECT_ID":"2025-095G","EPOCH":"2025-11-03T23:35:16.727136","MEAN_MOTION":15.27584964,"ECCENTRICITY":0.00013201,"INCLINATION":43.0007,"RA_OF_ASC_NODE":166.0519,"ARG_OF_PERICENTER":272.6301,"MEAN_ANOMALY":87.4399,"EPHEMERIS_TYPE":0,"CLASSIFICATION_TYPE":"U","NORAD_CAT_ID":63896,"ELEMENT_SET_NO":999,"REV_AT_EPOCH":2856,"BSTAR":0.00053932863,"MEAN_MOTION_DOT":0.00014611,"MEAN_MOTION_DDOT":0},{"OBJECT_NAME":"STARLINK-33957","OBJECT_ID":"2025-095H","EPOCH":"2025-11-03T21:09:31.573152","MEAN_MOTION":15.27594148,"ECCENTRICITY":0.0001986,"INCLINATION":43.0046,"RA_OF_ASC_NODE":167.0203,"ARG_OF_PERICENTER":291.7912,"MEAN_ANOMALY":68.2728,"EPHEMERIS_TYPE":0,"CLASSIFICATION_TYPE":"U","NORAD_CAT_ID":63897,"ELEMENT_SET_NO":999,"REV_AT_EPOCH":2853,"BSTAR":0.00088146,"MEAN_MOTION_DOT":0.00024084,"MEAN_MOTION_DDOT":0},{"OBJECT_NAME":"STARLINK-34120","OBJECT_ID":"2025-095J","EPOCH":"2025-11-03T15:03:47.489472","MEAN_MOTION":15.27595542,"ECCENTRICITY":0.00017963,"INCLINATION":43.0002,"RA_OF_ASC_NODE":167.6799,"ARG_OF_PERICENTER":269.2913,"MEAN_ANOMALY":90.7732,"EPHEMERIS_TYPE":0,"CLASSIFICATION_TYPE":"U","NORAD_CAT_ID":63898,"ELEMENT_SET_NO":999,"REV_AT_EPOCH":2851,"BSTAR":0.00092081379,"MEAN_MOTION_DOT":0.00025176,"MEAN_MOTION_DDOT":0},{"OBJECT_NAME":"STARLINK-34134","OBJECT_ID":"2025-095K","EPOCH":"2025-11-04T07:48:17.935776","MEAN_MOTION":15.27560181,"ECCENTRICITY":0.0001733,"INCLINATION":43.0018,"RA_OF_ASC_NODE":164.327,"ARG_OF_PERICENTER":261.9363,"MEAN_ANOMALY":98.1292,"EPHEMERIS_TYPE":0,"CLASSIFICATION_TYPE":"U","NORAD_CAT_ID":63899,"ELEMENT_SET_NO":999,"REV_AT_EPOCH":2861,"BSTAR":0.0010467,"MEAN_MOTION_DOT":0.00028637,"MEAN_MOTION_DDOT":0},{"OBJECT_NAME":"STARLINK-34118","OBJECT_ID":"2025-095L","EPOCH":"2025-11-04T07:57:31.751136","MEAN_MOTION":15.27581585,"ECCENTRICITY":0.0002726,"INCLINATION":43.0031,"RA_OF_ASC_NODE":164.3759,"ARG_OF_PERICENTER":275.9742,"MEAN_ANOMALY":84.0799,"EPHEMERIS_TYPE":0,"CLASSIFICATION_TYPE":"U","NORAD_CAT_ID":63900,"ELEMENT_SET_NO":999,"REV_AT_EPOCH":2861,"BSTAR":0.0010574,"MEAN_MOTION_DOT":0.00028952,"MEAN_MOTION_DDOT":0},{"OBJECT_NAME":"STARLINK-34125","OBJECT_ID":"2025-095M","EPOCH":"2025-11-04T07:37:10.149312","MEAN_MOTION":15.27592245,"ECCENTRICITY":3.2e-5,"INCLINATION":42.9952,"RA_OF_ASC_NODE":164.2669,"ARG_OF_PERICENTER":331.9068,"MEAN_ANOMALY":28.1767,"EPHEMERIS_TYPE":0,"CLASSIFICATION_TYPE":"U","NORAD_CAT_ID":63901,"ELEMENT_SET_NO":999,"REV_AT_EPOCH":2860,"BSTAR":0.0007915,"MEAN_MOTION_DOT":0.0002159,"MEAN_MOTION_DDOT":0},{"OBJECT_NAME":"STARLINK-33955","OBJECT_ID":"2025-095N","EPOCH":"2025-11-03T23:03:49.485024","MEAN_MOTION":15.27601985,"ECCENTRICITY":0.0001575,"INCLINATION":42.9996,"RA_OF_ASC_NODE":165.8809,"ARG_OF_PERICENTER":264.3223,"MEAN_ANOMALY":95.7449,"EPHEMERIS_TYPE":0,"CLASSIFICATION_TYPE":"U","NORAD_CAT_ID":63902,"ELEMENT_SET_NO":999,"REV_AT_EPOCH":2855,"BSTAR":0.0013808,"MEAN_MOTION_DOT":0.00037955,"MEAN_MOTION_DDOT":0},{"OBJECT_NAME":"STARLINK-34097","OBJECT_ID":"2025-095P","EPOCH":"2025-11-04T07:22:21.756000","MEAN_MOTION":15.27594776,"ECCENTRICITY":0.0001049,"INCLINATION":43.0002,"RA_OF_ASC_NODE":164.1838,"ARG_OF_PERICENTER":270.3542,"MEAN_ANOMALY":89.7189,"EPHEMERIS_TYPE":0,"CLASSIFICATION_TYPE":"U","NORAD_CAT_ID":63903,"ELEMENT_SET_NO":999,"REV_AT_EPOCH":2860,"BSTAR":0.0010346,"MEAN_MOTION_DOT":0.00028329,"MEAN_MOTION_DDOT":0},{"OBJECT_NAME":"STARLINK-34092","OBJECT_ID":"2025-095Q","EPOCH":"2025-11-03T21:05:49.443936","MEAN_MOTION":15.27615003,"ECCENTRICITY":2.38e-5,"INCLINATION":42.9993,"RA_OF_ASC_NODE":166.9959,"ARG_OF_PERICENTER":218.3296,"MEAN_ANOMALY":141.7539,"EPHEMERIS_TYPE":0,"CLASSIFICATION_TYPE":"U","NORAD_CAT_ID":63904,"ELEMENT_SET_NO":999,"REV_AT_EPOCH":2853,"BSTAR":0.0012908,"MEAN_MOTION_DOT":0.00035468,"MEAN_MOTION_DDOT":0},{"OBJECT_NAME":"STARLINK-34114","OBJECT_ID":"2025-095R","EPOCH":"2025-11-03T21:16:56.358624","MEAN_MOTION":15.2762612,"ECCENTRICITY":0.0001304,"INCLINATION":42.9984,"RA_OF_ASC_NODE":167.0507,"ARG_OF_PERICENTER":281.397,"MEAN_ANOMALY":78.6735,"EPHEMERIS_TYPE":0,"CLASSIFICATION_TYPE":"U","NORAD_CAT_ID":63905,"ELEMENT_SET_NO":999,"REV_AT_EPOCH":2853,"BSTAR":0.0012227,"MEAN_MOTION_DOT":0.00033586,"MEAN_MOTION_DDOT":0},{"OBJECT_NAME":"STARLINK-33770","OBJECT_ID":"2025-095S","EPOCH":"2025-11-03T23:16:46.624512","MEAN_MOTION":15.27589611,"ECCENTRICITY":0.00016932,"INCLINATION":42.9968,"RA_OF_ASC_NODE":165.9525,"ARG_OF_PERICENTER":258.3722,"MEAN_ANOMALY":101.694,"EPHEMERIS_TYPE":0,"CLASSIFICATION_TYPE":"U","NORAD_CAT_ID":63906,"ELEMENT_SET_NO":999,"REV_AT_EPOCH":2855,"BSTAR":0.0010389341,"MEAN_MOTION_DOT":0.00028446,"MEAN_MOTION_DDOT":0},{"OBJECT_NAME":"STARLINK-34106","OBJECT_ID":"2025-095T","EPOCH":"2025-11-03T23:11:13.573248","MEAN_MOTION":15.2758944,"ECCENTRICITY":9.451e-5,"INCLINATION":42.9984,"RA_OF_ASC_NODE":165.9202,"ARG_OF_PERICENTER":285.1418,"MEAN_ANOMALY":74.9329,"EPHEMERIS_TYPE":0,"CLASSIFICATION_TYPE":"U","NORAD_CAT_ID":63907,"ELEMENT_SET_NO":999,"REV_AT_EPOCH":2855,"BSTAR":0.00089793027,"MEAN_MOTION_DOT":0.00024536,"MEAN_MOTION_DDOT":0}]
